# From MPEC 2021-P47
C/2018 A3 (ATLAS),e,139.5935,194.3423,86.4792,343.8380,0.0001546,0.99042796,0.0000,01/08.7986/2019,2000,g  8.5,4.0
# From MPC109147
P/2018 A5 (PANSTARRS),e,23.6246,87.7838,359.5397,5.624534,0.0738881,0.52449150,198.1907,02/01.0/2025,2000,g 15.0,4.0
# From MPEC 2024-JU4
C/2018 A6 (Gibbs),e,77.1442,340.4440,264.2837,15.00011,0.0169653,0.79880772,34.4866,02/01.0/2025,2000,g  9.0,4.0
# From MPC114601
P/2018 C1 (Lemmon-Read),e,5.1029,270.2235,235.7710,5.649801,0.0733930,0.53258250,185.9812,02/01.0/2025,2000,g 13.5,4.0
# From MPEC 2022-M88
C/2018 DO4 (Lemmon),e,160.4477,251.3881,176.3974,25.49815,0.0076549,0.90506159,15.2720,02/01.0/2025,2000,g 11.0,4.0
# From MPEC 2021-R75
C/2018 F1 (Grauer),e,46.1552,177.3110,71.4558,218.7580,0.0003046,0.98631730,0.0000,12/10.1683/2018,2000,g 11.5,4.0
# From MPEC 2023-A50
C/2018 F4 (PANSTARRS),e,78.1195,26.5299,263.2013,1863,0.0000123,0.99814858,0.0000,12/01.0984/2019,2000,g 11.0,6.0
# From MPEC 2021-Y10
C/2018 F4-A,e,78.1197,26.5301,263.1981,1811,0.0000128,0.99809563,0.0000,12/01.0865/2019,2000,g 11.0,6.0
# From MPEC 2023-D41
C/2018 F4-B,e,78.1206,26.5296,263.1839,1899,0.0000119,0.99818439,0.0000,12/01.0233/2019,2000,g 11.0,6.0
# From MPC114602
P/2018 H2 (PANSTARRS),e,7.4191,67.9807,119.2708,4.405489,0.1065891,0.53999775,277.3531,02/01.0/2025,2000,g 16.6,2.0
# From MPEC 2021-R75
C/2018 KJ3 (Lemmon),e,136.6211,91.6949,217.5511,728.3414,0.0000501,0.99503252,0.0000,09/09.1014/2019,2000,g 12.2,2.0
# From MPC114602
P/2018 L1 (PANSTARRS),e,10.5785,268.5843,17.9622,3.657416,0.1409102,0.48126107,320.8465,02/01.0/2025,2000,g 15.0,4.0
# From MPEC 2021-P47
C/2018 L2 (ATLAS),e,67.2023,242.9839,56.3504,238.5022,0.0002676,0.99278308,0.0000,11/29.9098/2018,2000,g 10.0,4.0
# From MPC114603
P/2018 L4 (PANSTARRS),e,26.5919,145.2241,140.5193,4.948404,0.0895378,0.65819986,213.2285,02/01.0/2025,2000,g 17.5,4.0
# From MPEC 2022-YN2
C/2018 N2 (ASASSN),h,11/12.0726/2019,77.5151,24.5161,25.3146,1.001957,3.134624,2000,6.0,4.0
# From MPC114603
P/2018 P4 (PANSTARRS),e,23.0837,353.1556,8.5156,6.694887,0.0568970,0.44929415,129.5697,02/01.0/2025,2000,g 12.0,4.0
# From MPEC 2021-P47
C/2018 P5 (PANSTARRS),e,7.2462,216.2608,132.0469,12.84891,0.0213995,0.64183371,46.3651,02/01.0/2025,2000,g 11.0,4.0
# From MPC118841
C/2018 R3 (Lemmon),e,69.6928,324.3977,112.7769,1752,0.0000134,0.99926748,0.0000,06/08.1055/2019,2000,g  9.5,4.0
# From MPC114603
C/2018 R5 (Lemmon),e,103.6964,171.2513,178.2754,22.98392,0.0089447,0.84169010,19.7970,02/01.0/2025,2000,g 11.5,4.0
# From MPEC 2022-QC6
C/2018 S2 (TESS),e,64.1100,85.1067,290.9334,14.37071,0.0180920,0.61808572,41.2345,02/01.0/2025,2000,g  7.5,4.0
# From MPEC 2024-JU4
C/2018 U1 (Lemmon),h,11/02.3503/2021,108.3257,75.5170,180.3775,1.000418,4.987350,2000,5.0,4.0
# From MPC114604
C/2018 V1 (Machholz-Fujikawa-Iwamoto),h,12/03.8226/2018,144.1915,129.5500,89.5436,1.000451,0.391396,2000,12.0,4.0
# From MPC115884
C/2018 V2 (ATLAS),e,159.1632,357.1942,319.2603,25.23118,0.0077767,0.90120000,17.5676,02/01.0/2025,2000,g 15.0,4.0
# From MPEC 2025-A40
P/2018 VN2 (Leonard),e,18.2586,226.4402,138.9290,4.061199,0.1204267,0.47823576,292.4764,02/01.0/2025,2000,g 15.0,4.0
# From MPEC 2025-A40
A/2018 V3,e,164.9189,308.8084,3.5901,127.8409,0.0006819,0.98958367,0.0000,09/10.4252/2019,2000,g 15.7,2.0
# From MPEC 2022-M21
C/2018 V4 (Africano),e,69.0456,78.2427,0.0729,214.2518,0.0003143,0.98505676,0.0000,03/02.3617/2019,2000,g 12.5,4.0
# From MPEC 2021-P47
P/2018 V5 (Trujillo-Sheppard),e,10.5798,171.3016,260.8412,8.978381,0.0366359,0.47590495,84.6245,02/01.0/2025,2000,g 12.5,4.0
# From MPEC 2021-P47
C/2018 W1 (Catalina),e,83.4127,233.6481,251.1728,21.73480,0.0097268,0.93777331,20.3329,02/01.0/2025,2000,g 15.5,2.0
# From MPEC 2021-P47
C/2018 W2 (Africano),h,09/05.5877/2019,116.5569,181.9476,158.2259,1.000924,1.465834,2000,9.5,4.0
# From MPEC 2023-M14
A/2018 W3,e,104.8405,251.6920,313.8874,709.4509,0.0000522,0.99396177,0.0000,04/13.1526/2021,2000,g 10.7,2.0
# From MPC119996
C/2018 X2 (Fitzsimmons),e,23.1013,340.6623,161.9818,140.1797,0.0005938,0.98493724,0.0000,07/09.5449/2019,2000,g 12.0,4.0
# From MPC114604
C/2018 X3 (PANSTARRS),e,43.4285,78.7941,359.8457,12.40665,0.0225539,0.78294270,50.1244,02/01.0/2025,2000,g 14.5,4.0
# From MPEC 2024-A43
C/2018 Y1 (Iwamoto),e,160.4724,147.3558,357.8600,126.2951,0.0006944,0.98977556,0.0000,02/03.6710/2019,2000,g 11.5,4.0
# From MPC114605
P/2018 Y2 (Africano),e,11.6942,297.1230,162.3582,7.456007,0.0484111,0.48003955,107.4582,02/01.0/2025,2000,g 11.5,4.0
# From MPC114605
P/2019 A1 (PANSTARRS),e,13.7696,312.2147,150.7710,5.112750,0.0852555,0.57024969,196.2479,02/01.0/2025,2000,g 16.0,4.0
# From MPEC 2021-P47
P/2019 A2 (ATLAS),e,14.8715,139.3740,323.9320,5.710469,0.0722265,0.38324885,163.3249,02/01.0/2025,2000,g 10.5,4.0
# From MPEC 2022-M21
P/2019 A3 (PANSTARRS),e,15.3616,31.3242,325.7073,3.147354,0.1765167,0.26715352,59.1547,02/01.0/2025,2000,g 16.0,4.0
# From MPEC 2022-L66
P/2019 A4 (PANSTARRS),e,13.3054,119.3544,343.1954,2.614530,0.2331384,0.08740973,163.0828,02/01.0/2025,2000,g 15.0,4.0
# From MPEC 2021-P47
C/2019 A5 (PANSTARRS),e,67.5496,146.5269,355.7999,21.49198,0.0098921,0.70634287,20.4395,02/01.0/2025,2000,g  9.5,4.0
# From MPC114605
P/2019 A6 (Lemmon-PANSTARRS),e,33.2964,280.1748,156.2406,5.356694,0.0794985,0.64042317,186.3689,02/01.0/2025,2000,g 16.0,4.0
# From MPC115884
P/2019 A8 (PANSTARRS),e,2.2141,114.2087,62.8159,4.360490,0.1082433,0.22454172,268.5621,02/01.0/2025,2000,g 16.0,4.0
# From MPC118842
C/2019 A9 (PANSTARRS),e,84.3932,278.4676,237.8856,39.26574,0.0040057,0.96364512,8.0761,02/01.0/2025,2000,g 15.0,4.0
# From MPEC 2022-L66
C/2019 B1 (Africano),e,123.4835,290.2424,174.8076,139.0502,0.0006011,0.98847908,0.0000,03/18.2846/2019,2000,g 16.0,4.0
# From MPC115885
P/2019 B2 (Groeller),e,16.9565,175.6777,0.6511,3.926454,0.1266786,0.35778496,264.5399,02/01.0/2025,2000,g 14.5,4.0
# From MPEC 2024-JU4
C/2019 B3 (PANSTARRS),e,66.5895,358.4066,263.9890,3952,0.0000040,0.99827226,0.0000,01/19.6710/2021,2000,g  5.5,4.0
# From MPEC 2021-P47
C/2019 C1 (ATLAS),e,36.0430,212.3788,319.0080,672.8363,0.0000565,0.99023853,0.0000,05/04.3236/2020,2000,g 10.0,4.0
# From MPEC 2022-O08
C/2019 D1 (Flewelling),e,34.0010,231.6534,70.7335,137.5622,0.0006109,0.98842713,0.0000,05/09.1851/2019,2000,g 13.0,4.0
# From MPEC 2025-A40
C/2019 E3 (ATLAS),e,84.3100,347.2036,280.7156,5092,0.0000027,0.99797445,0.0000,11/15.5537/2023,2000,g  2.5,4.0
# From MPEC 2024-GJ3
C/2019 F1 (ATLAS-Africano),h,06/21.3999/2021,54.2425,38.6637,251.3192,1.000563,3.608795,2000,5.5,4.0
# From MPEC 2025-A40
C/2019 F2 (ATLAS),e,19.3258,175.3592,11.6149,16.55907,0.0146268,0.86468728,28.8656,02/01.0/2025,2000,g 12.0,4.0
# From MPEC 2024-E01
C/2019 G2 (PANSTARRS),e,159.2439,208.2169,82.7399,400.1866,0.0001231,0.99424367,0.0000,12/06.7116/2019,2000,g 15.0,4.0
# From MPEC 2022-VC5
A/2019 G3,e,156.8056,49.9058,161.7609,17.12964,0.0139021,0.83437178,31.2923,02/01.0/2025,2000,g 17.1,2.0
# From MPC114607
P/2019 GG21 (PANSTARRS),e,6.0847,340.5641,208.5868,7.468393,0.0482907,0.47167210,101.1384,02/01.0/2025,2000,g 12.0,4.0
# From MPEC 2022-M21
C/2019 H1 (NEOWISE),e,104.3573,269.3121,19.2582,231.2775,0.0002802,0.99204179,0.0000,04/27.1800/2019,2000,g 15.5,4.0
# From MPEC 2023-A50
C/2019 J1 (Lemmon),e,24.5230,98.2336,167.5985,66.72976,0.0018081,0.96278230,3.8476,02/01.0/2025,2000,g 12.0,4.0
# From MPEC 2021-R75
C/2019 J2 (Palomar),e,105.2288,25.4933,98.5723,160.4833,0.0004848,0.98931112,0.0000,07/21.0686/2019,2000,g 13.0,4.0
# From MPC117071
C/2019 J3 (ATLAS),h,08/02.1816/2019,131.2943,270.6551,16.5124,1.000046,2.362684,2000,13.5,4.0
# From MPEC 2022-M21
C/2019 JU6 (ATLAS),e,148.3094,21.7128,94.8197,37339,0.0000001,0.99994554,0.0000,06/02.8957/2019,2000,g 14.5,4.0
# From MPEC 2022-O08
C/2019 K1 (ATLAS),e,87.0119,73.3058,265.7709,3300,0.0000052,0.99938782,0.0000,02/11.2653/2020,2000,g 10.0,4.0
# From MPC119997
C/2019 K4 (Ye),e,105.2912,180.2647,140.0116,1609,0.0000153,0.99858546,0.0000,06/15.2429/2019,2000,g 12.5,4.0
# From MPEC 2021-P47
C/2019 K5 (Young),e,15.2984,177.2536,175.1528,169.2143,0.0004478,0.98786530,0.0000,06/21.7451/2019,2000,g 13.0,4.0
# From MPEC 2021-P47
C/2019 K6 (PANSTARRS),e,132.3844,42.9903,187.4532,987.7725,0.0000317,0.99603383,0.0000,05/18.8824/2020,2000,g 11.5,4.0
# From MPEC 2024-GJ3
C/2019 K7 (Smith),h,06/17.3476/2020,103.4855,308.0280,27.3764,1.000580,4.475533,2000,6.0,4.0
# From MPEC 2021-R75
C/2019 K8 (ATLAS),e,93.0568,290.9943,85.3663,1794,0.0000130,0.99821838,0.0000,07/20.5958/2019,2000,g 11.5,4.0
# From MPEC 2023-A50
C/2019 L1 (PANSTARRS),e,9.9732,254.4263,50.0320,9.822686,0.0320154,0.70425033,64.1647,02/01.0/2025,2000,g 13.5,4.0
# From MPC115886
C/2019 L2 (NEOWISE),e,152.1656,12.5739,18.8593,25.14635,0.0078161,0.93546790,16.6522,02/01.0/2025,2000,g 16.0,4.0
# From MPEC 2024-GJ3
P/2019 LD2 (ATLAS),e,11.6003,179.0361,116.8952,5.178518,0.0836365,0.12954803,152.5220,02/01.0/2025,2000,g  8.5,4.0
# From MPEC 2025-A40
C/2019 L3 (ATLAS),h,01/10.0483/2022,48.3451,290.7235,171.7211,1.002973,3.557156,2000,4.5,4.0
# From MPEC 2024-YC7
P/2019 LM4 (Palomar),e,36.4188,72.8961,68.2004,5.702980,0.0723688,0.58596184,148.6128,02/01.0/2025,2000,g  9.5,4.0
# From MPC118095
C/2019 LB7 (Kleyna),e,164.2825,3.9742,336.7511,34.99003,0.0047620,0.92866721,10.1803,02/01.0/2025,2000,g 17.0,4.0
# From MPC118095
C/2019 M3 (ATLAS),e,99.6267,155.0275,87.9353,4764,0.0000030,0.99949088,0.0000,12/31.2883/2018,2000,g 12.2,4.0
# From MPEC 2023-JA2
C/2019 M4 (TESS),h,09/10.2377/2019,65.6832,52.6464,260.3529,1.000941,9.191212,2000,5.0,4.0
# From MPEC 2023-C45
C/2019 N1 (ATLAS),e,82.4998,13.5296,193.3491,999.5731,0.0000312,0.99829594,0.0000,11/30.6092/2020,2000,g  7.5,4.0
# From MPEC 2023-CD8
A/2019 N2,e,89.3242,276.2197,347.0982,1215,0.0000233,0.99840145,0.0000,08/22.5157/2019,2000,g 12.5,2.0
# From MPEC 2022-A21
C/2019 NJ3 (Lemmon),h,10/22.5099/2020,99.3501,142.4907,246.8808,1.001666,4.362943,2000,9.0,4.0
# From MPEC 2024-R10
